$$SOE
2459580.500000000, A.D. 2022-Jan-01 00:00:00.0000, 1.873706753508033E+08, 3.636250118926752E+08, 5.116327698537561E+07,
2459587.500000000, A.D. 2022-Jan-08 00:00:00.0000, 1.773876895935917E+08, 3.685640757211919E+08, 5.169700544673091E+07,
2459594.500000000, A.D. 2022-Jan-15 00:00:00.0000, 1.672818004145144E+08, 3.732478099098463E+08, 5.219492124370435E+07,
2459601.500000000, A.D. 2022-Jan-22 00:00:00.0000, 1.570600556467050E+08, 3.776730684021087E+08, 5.265669294382994E+07,
2459608.500000000, A.D. 2022-Jan-29 00:00:00.0000, 1.467295911144919E+08, 3.818369190877234E+08, 5.308201870093681E+07,
2459615.500000000, A.D. 2022-Feb-05 00:00:00.0000, 1.362976208587522E+08, 3.857366457929879E+08, 5.347062666167171E+07,
2459622.500000000, A.D. 2022-Feb-12 00:00:00.0000, 1.257714294439232E+08, 3.893697488831674E+08, 5.382227504365386E+07,
2459629.500000000, A.D. 2022-Feb-19 00:00:00.0000, 1.151583650411370E+08, 3.927339468421713E+08, 5.413675219967490E+07,
2459636.500000000, A.D. 2022-Feb-26 00:00:00.0000, 1.044658319924445E+08, 3.958271781015884E+08, 5.441387672817656E+07,
2459643.500000000, A.D. 2022-Mar-05 00:00:00.0000, 9.370128303138494E+07, 3.986476025000750E+08, 5.465349756456038E+07,
2459650.500000000, A.D. 2022-Mar-12 00:00:00.0000, 8.287221139834198E+07, 4.011936023071177E+08, 5.485549402747199E+07,
2459657.500000000, A.D. 2022-Mar-19 00:00:00.0000, 7.198614293859610E+07, 4.034637828400939E+08, 5.501977581583339E+07,
2459664.500000000, A.D. 2022-Mar-26 00:00:00.0000, 6.105062822225166E+07, 4.054569726705484E+08, 5.514628295422545E+07,
2459671.500000000, A.D. 2022-Apr-02 00:00:00.0000, 5.007323477035126E+07, 4.071722233666718E+08, 5.523498567613479E+07,
2459678.500000000, A.D. 2022-Apr-09 00:00:00.0000, 3.906153967526408E+07, 4.086088087807596E+08, 5.528588422102532E+07,
2459685.500000000, A.D. 2022-Apr-16 00:00:00.0000, 2.802312298813741E+07, 4.097662245415814E+08, 5.529900856679580E+07,
2459692.500000000, A.D. 2022-Apr-23 00:00:00.0000, 1.696556062129864E+07, 4.106441888432322E+08, 5.527441830361924E+07,
2459699.500000000, A.D. 2022-Apr-30 00:00:00.0000, 5.896414912323649E+06, 4.112426422889197E+08, 5.521220263746750E+07,
2459706.500000000, A.D. 2022-May-07 00:00:00.0000, -5.176774075787419E+06, 4.115617448202615E+08, 5.511248008188799E+07,
2459713.500000000, A.D. 2022-May-14 00:00:00.0000, -1.624649511647279E+07, 4.116018727823974E+08, 5.497539796100312E+07,
2459720.500000000, A.D. 2022-May-21 00:00:00.0000, -2.730527225912913E+07, 4.113636168940022E+08, 5.480113197344950E+07,
2459727.500000000, A.D. 2022-May-28 00:00:00.0000, -3.834567161186610E+07, 4.108477801713451E+08, 5.458988578391150E+07,
2459734.500000000, A.D. 2022-Jun-04 00:00:00.0000, -4.936030817881763E+07, 4.100553755029381E+08, 5.434189059269932E+07,
2459741.500000000, A.D. 2022-Jun-11 00:00:00.0000, -6.034185259635264E+07, 4.089876228875898E+08, 5.405740467190573E+07,
2459748.500000000, A.D. 2022-Jun-18 00:00:00.0000, -7.128303771912047E+07, 4.076459463604295E+08, 5.373671286738056E+07,
2459755.500000000, A.D. 2022-Jun-25 00:00:00.0000, -8.217666501687762E+07, 4.060319705854133E+08, 5.338012606287128E+07,
2459762.500000000, A.D. 2022-Jul-02 00:00:00.0000, -9.301561063932720E+07, 4.041475170605491E+08, 5.298798059048310E+07,
2459769.500000000, A.D. 2022-Jul-09 00:00:00.0000, -1.037928307511316E+08, 4.019946001251497E+08, 5.256063756805420E+07,
2459776.500000000, A.D. 2022-Jul-16 00:00:00.0000, -1.145013661861186E+08, 3.995754238655661E+08, 5.209848225917903E+07,
2459783.500000000, A.D. 2022-Jul-23 00:00:00.0000, -1.251343486125883E+08, 3.968923800124072E+08, 5.160192366615716E+07,
2459790.500000000, A.D. 2022-Jul-30 00:00:00.0000, -1.356850081176925E+08, 3.939480434868894E+08, 5.107139407567173E+07,
2459797.500000000, A.D. 2022-Aug-06 00:00:00.0000, -1.461466786087499E+08, 3.907451662542350E+08, 5.050734828190750E+07,
2459804.500000000, A.D. 2022-Aug-13 00:00:00.0000, -1.565128018529903E+08, 3.872866722549930E+08, 4.991026279040629E+07,
2459811.500000000, A.D. 2022-Aug-20 00:00:00.0000, -1.667769317196770E+08, 3.835756529263028E+08, 4.928063510741615E+07,
2459818.500000000, A.D. 2022-Aug-27 00:00:00.0000, -1.769327385512501E+08, 3.796153625976000E+08, 4.861898305036636E+07,
2459825.500000000, A.D. 2022-Sep-03 00:00:00.0000, -1.869740134124330E+08, 3.754092136596738E+08, 4.792584404883118E+07,
2459832.500000000, A.D. 2022-Sep-10 00:00:00.0000, -1.968946721265948E+08, 3.709607715402243E+08, 4.720177443103361E+07,
2459839.500000000, A.D. 2022-Sep-17 00:00:00.0000, -2.066887590719196E+08, 3.662737494947280E+08, 4.644734869489101E+07,
2459846.500000000, A.D. 2022-Sep-24 00:00:00.0000, -2.163504506802387E+08, 3.613520031745661E+08, 4.566315875615422E+07,
2459853.500000000, A.D. 2022-Oct-01 00:00:00.0000, -2.258740584014967E+08, 3.561995249643975E+08, 4.484981315200467E+07,
2459860.500000000, A.D. 2022-Oct-08 00:00:00.0000, -2.352540307287876E+08, 3.508204386247815E+08, 4.400793620719714E+07,
2459867.500000000, A.D. 2022-Oct-15 00:00:00.0000, -2.444849552184898E+08, 3.452189954525456E+08, 4.313816734763004E+07,
2459874.500000000, A.D. 2022-Oct-22 00:00:00.0000, -2.535615626893832E+08, 3.393995702884644E+08, 4.224116062494554E+07,
2459881.500000000, A.D. 2022-Oct-29 00:00:00.0000, -2.624787311025907E+08, 3.333666547880521E+08, 4.131758401162781E+07,
2459888.500000000, A.D. 2022-Nov-05 00:00:00.0000, -2.712314870262473E+08, 3.271248507022487E+08, 4.036811849867560E+07,
2459895.500000000, A.D. 2022-Nov-12 00:00:00.0000, -2.798150066568955E+08, 3.206788644453194E+08, 3.939345728082682E+07,
2459902.500000000, A.D. 2022-Nov-19 00:00:00.0000, -2.882246171219237E+08, 3.140335020067601E+08, 3.839430501837562E+07,
2459909.500000000, A.D. 2022-Nov-26 00:00:00.0000, -2.964557978051038E+08, 3.071936638182986E+08, 3.737137711990961E+07,
2459916.500000000, A.D. 2022-Dec-03 00:00:00.0000, -3.045041815344369E+08, 3.001643395720460E+08, 3.632539903068510E+07,
2459923.500000000, A.D. 2022-Dec-10 00:00:00.0000, -3.123655555926566E+08, 2.929506030159441E+08, 3.525710552491689E+07,
2459930.500000000, A.D. 2022-Dec-17 00:00:00.0000, -3.200358625318435E+08, 2.855576067087234E+08, 3.416723999859011E+07,
2459937.500000000, A.D. 2022-Dec-24 00:00:00.0000, -3.275112006890891E+08, 2.779905766753198E+08, 3.305655374826603E+07,
2459944.500000000, A.D. 2022-Dec-31 00:00:00.0000, -3.347878240519953E+08, 2.702548070764605E+08, 3.192580521270537E+07,
2459951.500000000, A.D. 2023-Jan-07 00:00:00.0000, -3.418621413581418E+08, 2.623556558603361E+08, 3.077575924549907E+07,
2459958.500000000, A.D. 2023-Jan-14 00:00:00.0000, -3.487307164038045E+08, 2.542985418989257E+08, 2.960718664052746E+07,
2459965.500000000, A.D. 2023-Jan-21 00:00:00.0000, -3.553902702147046E+08, 2.460889404436204E+08, 2.842086371084473E+07,
2459972.500000000, A.D. 2023-Jan-28 00:00:00.0000, -3.618376814148396E+08, 2.377323767097584E+08, 2.721757156906757E+07,
2459979.500000000, A.D. 2023-Feb-04 00:00:00.0000, -3.680699850071324E+08, 2.292344206193240E+08, 2.599809537624066E+07,
2459986.500000000, A.D. 2023-Feb-11 00:00:00.0000, -3.740843713698359E+08, 2.206006825118773E+08, 2.476322370848659E+07,
2459993.500000000, A.D. 2023-Feb-18 00:00:00.0000, -3.798781855389296E+08, 2.118368090053352E+08, 2.351374798032258E+07,
2460000.500000000, A.D. 2023-Feb-25 00:00:00.0000, -3.854489265190191E+08, 2.029484788477308E+08, 2.225046188759020E+07,
2460007.500000000, A.D. 2023-Mar-04 00:00:00.0000, -3.907942465261782E+08, 1.939413987802623E+08, 2.097416086245555E+07,
2460014.500000000, A.D. 2023-Mar-11 00:00:00.0000, -3.959119501405891E+08, 1.848212994131491E+08, 1.968564153828320E+07,
2460021.500000000, A.D. 2023-Mar-18 00:00:00.0000, -4.007999933291095E+08, 1.755939310658370E+08, 1.838570121649507E+07,
2460028.500000000, A.D. 2023-Mar-25 00:00:00.0000, -4.054564821419805E+08, 1.662650595255660E+08, 1.707513731341276E+07,
2460035.500000000, A.D. 2023-Apr-01 00:00:00.0000, -4.098796706665378E+08, 1.568404621189970E+08, 1.575474678074721E+07,
2460042.500000000, A.D. 2023-Apr-08 00:00:00.0000, -4.140679588606476E+08, 1.473259253228793E+08, 1.442532565660415E+07,
2460049.500000000, A.D. 2023-Apr-15 00:00:00.0000, -4.180198926113258E+08, 1.377272428088233E+08, 1.308766887107532E+07,
2460056.500000000, A.D. 2023-Apr-22 00:00:00.0000, -4.217341642172883E+08, 1.280502108730482E+08, 1.174256989099681E+07,
2460063.500000000, A.D. 2023-Apr-29 00:00:00.0000, -4.252096105636947E+08, 1.183006235059964E+08, 1.039082013701393E+07,
2460070.500000000, A.D. 2023-May-06 00:00:00.0000, -4.284452107516974E+08, 1.084842688818315E+08, 9.033208479721710E+06,
2460077.500000000, A.D. 2023-May-13 00:00:00.0000, -4.314400841641715E+08, 9.860692637302166E+07, 7.670520831047624E+06,
2460084.500000000, A.D. 2023-May-20 00:00:00.0000, -4.341934887374719E+08, 8.867436359787080E+07, 6.303539768903043E+06,
2460091.500000000, A.D. 2023-May-27 00:00:00.0000, -4.367048192493547E+08, 7.869233346905237E+07, 4.933044174651712E+06,
2460098.500000000, A.D. 2023-Jun-03 00:00:00.0000, -4.389736055707319E+08, 6.866657126588383E+07, 3.559808879872415E+06,
2460105.500000000, A.D. 2023-Jun-10 00:00:00.0000, -4.409995108643339E+08, 5.860279171420555E+07, 2.184604318595111E+06,
2460112.500000000, A.D. 2023-Jun-17 00:00:00.0000, -4.427823296481160E+08, 4.850668601271291E+07, 8.081961713036448E+05,
2460119.500000000, A.D. 2023-Jun-24 00:00:00.0000, -4.443219854089733E+08, 3.838391886094509E+07, -5.686550247465968E+05,
2460126.500000000, A.D. 2023-Jul-01 00:00:00.0000, -4.456185275174978E+08, 2.824012631625042E+07, -1.945194255015524E+06,
2460133.500000000, A.D. 2023-Jul-08 00:00:00.0000, -4.466721291208943E+08, 1.808091529988330E+07, -3.320672176779795E+06,
2460140.500000000, A.D. 2023-Jul-15 00:00:00.0000, -4.474830872952346E+08, 7.911861919922941E+06, -4.694345152593751E+06,
2460147.500000000, A.D. 2023-Jul-22 00:00:00.0000, -4.480518219402526E+08, -2.261492424683427E+06, -6.065475576138637E+06,
$$EOE